[{"OBJECT_NAME":"STARLINK-4160","OBJECT_ID":"2022-076AW","EPOCH":"2026-03-09T08:10:38.791200","MEAN_MOTION":15.08838552,"ECCENTRICITY":0.00013735,"INCLINATION":53.2171,"RA_OF_ASC_NODE":85.8814,"ARG_OF_PERICENTER":83.5258,"MEAN_ANOMALY":276.5891,"EPHEMERIS_TYPE":0,"CLASSIFICATION_TYPE":"U","NORAD_CAT_ID":53030,"ELEMENT_SET_NO":999,"REV_AT_EPOCH":20293,"BSTAR":-0.00010985404,"MEAN_MOTION_DOT":-2.036e-5,"MEAN_MOTION_DDOT":0},{"OBJECT_NAME":"OBJECT T","OBJECT_ID":"2018-099T","EPOCH":"2026-03-09T14:32:29.418720","MEAN_MOTION":15.09436097,"ECCENTRICITY":0.0004517,"INCLINATION":97.4347,"RA_OF_ASC_NODE":115.9313,"ARG_OF_PERICENTER":320.9739,"MEAN_ANOMALY":39.1164,"EPHEMERIS_TYPE":0,"CLASSIFICATION_TYPE":"U","NORAD_CAT_ID":43775,"ELEMENT_SET_NO":999,"REV_AT_EPOCH":39729,"BSTAR":0.00032877,"MEAN_MOTION_DOT":5.2e-5,"MEAN_MOTION_DDOT":0}]
